[{"OBJECT_NAME":"ONEWEB-0614","OBJECT_ID":"2023-004S","EPOCH":"2026-03-09T21:26:01.956480","MEAN_MOTION":13.11417775,"ECCENTRICITY":0.00017854,"INCLINATION":87.8861,"RA_OF_ASC_NODE":40.8216,"ARG_OF_PERICENTER":71.9495,"MEAN_ANOMALY":288.1828,"EPHEMERIS_TYPE":0,"CLASSIFICATION_TYPE":"U","NORAD_CAT_ID":55156,"ELEMENT_SET_NO":999,"REV_AT_EPOCH":15282,"BSTAR":0.00081478103,"MEAN_MOTION_DOT":3.01e-6,"MEAN_MOTION_DDOT":0},{"OBJECT_NAME":"DELTA 1 DEB","OBJECT_ID":"1975-052LB","EPOCH":"2026-03-09T16:32:27.096864","MEAN_MOTION":13.27110979,"ECCENTRICITY":0.00909062,"INCLINATION":99.6693,"RA_OF_ASC_NODE":82.8398,"ARG_OF_PERICENTER":58.6017,"MEAN_ANOMALY":5.0092,"EPHEMERIS_TYPE":0,"CLASSIFICATION_TYPE":"U","NORAD_CAT_ID":26847,"ELEMENT_SET_NO":999,"REV_AT_EPOCH":39970,"BSTAR":8.7685065e-5,"MEAN_MOTION_DOT":0,"MEAN_MOTION_DDOT":0}]
